"Telesto:Saturn XIII:1980 S 13" "Sol/Saturn"
# Leading Lagrange point of Tethys
{
    Class "minormoon"
    Texture     "asteroid.jpg"
    SemiAxes [ 15 12.5 7.5 ]

    EllipticalOrbit
    {
    Period      1.887802
    SemiMajorAxis   294660
    Eccentricity    0.0010
    Inclination 1.170   #
    AscendingNode   188.718 #
    ArgOfPericenter 358.944 # J2000.0
    MeanAnomaly     18.554  #
    }

    Obliquity         1.2
    EquatorAscendingNode     80.8
    RotationOffset      306.0

    Albedo 1.0
}

"Calypso:Saturn XIV:1980 S 25" "Sol/Saturn"
# Trailing Lagrange point of Tethys
{
    Class "minormoon"
    Texture     "asteroid.jpg"
    SemiAxes [ 15 8 8 ]

    EllipticalOrbit
    {
    Period      1.887802
    SemiMajorAxis   294660
    Eccentricity    0.0005
    Inclination 1.472   #
    AscendingNode   273.860 #
    ArgOfPericenter 186.307 # J2000.0
    MeanAnomaly     348.156 #
    }

    Obliquity         1.6   #
    EquatorAscendingNode     12.4   # J2000.0
    RotationOffset      255

    Albedo 0.7
}

"Helene:Saturn XII:1980 S 6" "Sol/Saturn"
# Leading Lagrange point of Dione
{
    Class "minormoon"
    Texture     "asteroid.jpg"
    SemiAxes [ 18 16 15 ]

    EllipticalOrbit
    {
    Period      2.736915
    SemiMajorAxis   377400
    Eccentricity    0.0001
    Inclination 0.202   #
    AscendingNode   121.154 #
    ArgOfPericenter 48.574  # J2000.0
    MeanAnomaly     19.782  #
    }

    RotationOffset       10

    Albedo 0.6
}

"Ymir:Saturn XIX:2000 S 1" "Sol/Saturn"
{
	Class "minormoon"
	Texture	 	"asteroid.jpg"
	Mesh		"asteroid.cms"
	Radius		8

	EllipticalOrbit
	{
	Period		1312.37
	SemiMajorAxis	23096000
	Eccentricity	0.3331
	Inclination	145.961	#
	AscendingNode	7.260	#
	ArgOfPericenter	16.394	# J2000.0
	MeanAnomaly     216.669	#
	}

	RotationPeriod  10   # Guess

	Albedo 0.06
}

"Paaliaq:Saturn XX:2000 S 2" "Sol/Saturn"
{
	Class "minormoon"
	Texture	 	"asteroid.jpg"
	Mesh		"asteroid.cms"
	Radius		9.5

	EllipticalOrbit
	{
	Period		686.91
	SemiMajorAxis	15199000
	Eccentricity	0.3636
	Inclination	75.327	#
	AscendingNode	182.777	#
	ArgOfPericenter	239.203	# J2000.0
	MeanAnomaly     304.651	#
	}

	RotationPeriod  10   # Guess

	Albedo 0.06
}

"Siarnaq:Saturn XXIX:2000 S 3" "Sol/Saturn"
{
	Class "minormoon"
	Texture	 	"asteroid.jpg"
	Mesh		"asteroid.cms"
	Radius		16

	EllipticalOrbit
	{
	Period		893.08
	SemiMajorAxis	18160000
	Eccentricity	0.2948
	Inclination	60.642	#
	AscendingNode	235.860	#
	ArgOfPericenter	99.707	# J2000.0
	MeanAnomaly     190.719	#
	}

	RotationPeriod  10   # Guess

	Albedo 0.06
}

"Tarvos:Saturn XXI:2000 S 4" "Sol/Saturn"
{
	Class "minormoon"
	Texture	 	"asteroid.jpg"
	Mesh		"asteroid.cms"
	Radius		6.5

	EllipticalOrbit
	{
	Period		925.60
	SemiMajorAxis	18247000
	Eccentricity	0.5355
	Inclination	36.341	#
	AscendingNode	244.676	#
	ArgOfPericenter	332.621	# J2000.0
	MeanAnomaly     255.729	#
	}

	RotationPeriod  10   # Guess

	Albedo 0.06
}

"Kiviuq:Saturn XXIV:2000 S 5" "Sol/Saturn"
{
	Class "minormoon"
	Texture	 	"asteroid.jpg"
	Mesh		"asteroid.cms"
	Radius		7

	EllipticalOrbit
	{
	Period		449.22
	SemiMajorAxis	11365000
	Eccentricity	0.3335
	Inclination	76.796	#
	AscendingNode	182.386	#
	ArgOfPericenter	93.291	# J2000.0
	MeanAnomaly     168.548	#
	}

	RotationPeriod  10   # Guess

	Albedo 0.06
}

"Ijiraq:Saturn XXII:2000 S 6" "Sol/Saturn"
{
	Class "minormoon"
	Texture	 	"asteroid.jpg"
	Mesh		"asteroid.cms"
	Radius		5

	EllipticalOrbit
	{
	Period		451.48
	SemiMajorAxis	11440000
	Eccentricity	0.3216
	Inclination	23.892	#
	AscendingNode	326.568	#
	ArgOfPericenter	88.423	# J2000.0
	MeanAnomaly     28.424	#
	}

	RotationPeriod  10   # Guess

	Albedo 0.06
}

"Thrymr:Saturn XXX:2000 S 7" "Sol/Saturn"
{
	Class "minormoon"
	Texture	 	"asteroid.jpg"
	Mesh		"asteroid.cms"
	Radius		2.8

	EllipticalOrbit
	{
	Period		1086.91
	SemiMajorAxis	20382000
	Eccentricity	0.4701
	Inclination	150.486	#
	AscendingNode	10.020	#
	ArgOfPericenter	23.091	# J2000.0
	MeanAnomaly     350.670	#
	}

	RotationPeriod  10   # Guess

	Albedo 0.06
}

"Skathi:Saturn XXVII:2000 S 8" "Sol/Saturn"
{
	Class "minormoon"
	Texture	 	"asteroid.jpg"
	Mesh		"asteroid.cms"
	Radius		3.2

	EllipticalOrbit
	{
	Period		728.93
	SemiMajorAxis	15647000
	Eccentricity	0.2697
	Inclination	148.361	#
	AscendingNode	67.100	#
	ArgOfPericenter	148.021	# J2000.0
	MeanAnomaly     117.271	#
	}

	RotationPeriod  10   # Guess

	Albedo 0.06
}

"Mundilfari:Saturn XXV:2000 S 9" "Sol/Saturn"
{
	Class "minormoon"
	Texture	 	"asteroid.jpg"
	Mesh		"asteroid.cms"
	Radius		2.8

	EllipticalOrbit
	{
	Period		951.38
	SemiMajorAxis	18709000
	Eccentricity	0.2078
	Inclination	150.253	#
	AscendingNode	338.432	#
	ArgOfPericenter	16.508	# J2000.0
	MeanAnomaly     97.432	#
	}

	RotationPeriod  10   # Guess

	Albedo 0.06
}

"Erriapus:Saturn XXVIII:2000 S 10" "Sol/Saturn" # (previously Erriapo)
{
	Class "minormoon"
	Texture	 	"asteroid.jpg"
	Mesh		"asteroid.cms"
	Radius		4.3

	EllipticalOrbit
	{
	Period		871.92
	SemiMajorAxis	17616000
	Eccentricity	0.4740
	Inclination	13.545	#
	AscendingNode	286.903	#
	ArgOfPericenter	332.997	# J2000.0
	MeanAnomaly     306.656	#
	}

	RotationPeriod  10   # Guess

	Albedo 0.06
}

"Albiorix:Saturn XXVI:2000 S 11" "Sol/Saturn"
{
	Class "minormoon"
	Texture	 	"asteroid.jpg"
	Mesh		"asteroid.cms"
	Radius		13

	EllipticalOrbit
	{
	Period		783.45
	SemiMajorAxis	16404000
	Eccentricity	0.4778
	Inclination	31.518	#
	AscendingNode	259.354	#
	ArgOfPericenter	112.808	# J2000.0
	MeanAnomaly     17.224	#
	}

	RotationPeriod  10   # Guess

	Albedo 0.06
}

"Suttungr:Saturn XXIII:2000 S 12" "Sol/Saturn"
{
	Class "minormoon"
	Texture	 	"asteroid.jpg"
	Mesh		"asteroid.cms"
	Radius		2.8

	EllipticalOrbit
	{
	Period		1016.31
	SemiMajorAxis	19463000
	Eccentricity	0.1138
	Inclination	150.914	#
	AscendingNode	10.905	#
	ArgOfPericenter	350.499	# J2000.0
	MeanAnomaly     317.642	#
	}

	RotationPeriod  10   # Guess

	Albedo 0.06
}

"Narvi:Saturn XXXI:2003 S 1" "Sol/Saturn"
{
	Class "minormoon"
	Texture	 	"asteroid.jpg"
	Mesh		"asteroid.cms"
	Radius		3.3

	EllipticalOrbit
	{
	Epoch		2452629.5	# 2002 Dec 21
	Period		956.19		# mean
	SemiMajorAxis	18719000	# mean
	Eccentricity	0.3522		# mean
	Inclination	106.989
	AscendingNode	9.524
	ArgOfPericenter	172.396
	MeanAnomaly     139.109
	}

	RotationPeriod  10   # Guess

	Albedo 0.06
}

"Methone:Saturn XXXII:2004 S 1" "Sol/Saturn"
{
	Class "minormoon"
	Texture	 	"asteroid.jpg"
	Mesh		"asteroid.cms"
	Radius		1.6

	EllipticalOrbit
	{
	Epoch		 2453177.5 # 2004 Jun 21 00:00UT
	Period		 1.00971
	SemiMajorAxis	 194251
	Eccentricity	 0.001
	Inclination	 0.018
	AscendingNode	 311.0
	LongOfPericenter 308.0
	MeanLongitude    154.79
	}

	RotationEpoch	 2453177.5 # 2004 Jun 21 00:00UT
	RotationOffset	 335
}

"Pallene:Saturn XXXIII:2004 S 2" "Sol/Saturn"
{
	Class "minormoon"
	Texture	 	"asteroid.jpg"
	Mesh		"asteroid.cms"
	Radius		2.2

	EllipticalOrbit
	{
	Epoch		 2453177.5 # 2004 Jun 21 00:00UT
	Period		 1.15374
	SemiMajorAxis 	 212283
	Eccentricity	 0.004
	Inclination	 0.181
	AscendingNode	 327.0
	LongOfPericenter 38
	MeanLongitude    85.51
	}

	RotationEpoch	 2453177.5 # 2004 Jun 21 00:00UT
	RotationOffset   266
}

"Polydeuces:Saturn XXXIV:2004 S 5" "Sol/Saturn"
# Trailing Lagrange point of Dione
{
	Class "minormoon"
	Texture	 	"asteroid.jpg"
	Mesh		"asteroid.cms"
	Radius		1.75

	EllipticalOrbit
	{
	Epoch		 2453006.5 # 2004 Jan 2 00:00UT
	Period		 2.73690
	SemiMajorAxis 	 377390
	Eccentricity	 0.0182
	Inclination	 0.1705
	AscendingNode	 262
	LongOfPericenter 103.22
	MeanLongitude    67.61
	}

	RotationEpoch	 2453006.5 # 2004 Jan 2 00:00UT
	RotationOffset   248
}

"2004 S 7" "Sol/Saturn"
{
	Class "minormoon"
	Texture	 	"asteroid.jpg"
	Mesh		"asteroid.cms"
	Radius		3

	EllipticalOrbit
	{
	Epoch		2453400.5	# 2005 Jan 30
	Period		1101.99
	SemiMajorAxis	20576693
	Eccentricity	0.5541269
	Inclination	150.244
	AscendingNode	29.863
	ArgOfPericenter	100.469
	MeanAnomaly     292.198
	}

	RotationPeriod  10   # Guess

	Albedo 0.06
}

"Fornjot:Saturn XLII:2004 S 8" "Sol/Saturn" # MPEC 2006-C74
{
	Class "minormoon"
	Texture	 	"asteroid.jpg"
	Mesh		"asteroid.cms"
	Radius		3

	EllipticalOrbit
	{
	Epoch		2453800.5	# 2006 Mar 6
	Period		1430.37
	SemiMajorAxis	24484380
	Eccentricity	0.1663457
	Inclination	171.801
	AscendingNode	 71.103
	ArgOfPericenter	331.856
	MeanAnomaly      40.554              
	}

	RotationPeriod  10   # Guess

	Albedo 0.06
}

"Farbauti:Saturn XL:2004 S 9" "Sol/Saturn" # MPEC 2006-C72
{
	Class "minormoon"
	Texture	 	"asteroid.jpg"
	Mesh		"asteroid.cms"
	Radius		2.5

	EllipticalOrbit
	{
	Epoch		2453800.5	# 2006 Mar 6
	Period		1054.78
	SemiMajorAxis	19984780
	Eccentricity	0.1747573
	Inclination	152.085
	AscendingNode	332.181
	ArgOfPericenter	351.158
	MeanAnomaly     310.328
	}

	RotationPeriod  10   # Guess

	Albedo 0.06
}

"Aegir:Saturn XXXVI:2004 S 10" "Sol/Saturn" # MPEC 2006-C55
{
	Class "minormoon"
	Texture	 	"asteroid.jpg"
	Mesh		"asteroid.cms"
	Radius		3

	EllipticalOrbit
	{
	Epoch		2453800.5	# 2006 Mar 6
	Period		1093.12
	SemiMajorAxis	20466110
	Eccentricity	0.2255397
	Inclination	163.662
	AscendingNode	  4.888
	ArgOfPericenter	264.241
	MeanAnomaly      25.842
	}

	RotationPeriod  10   # Guess

	Albedo 0.06
}

